GLOBALSTAR M094         
1 39074U 13005C   24319.50884378 -.00000096  00000+0  42768-4 0  9990
2 39074  51.9939 115.7469 0001149 114.7832 245.3154 12.62265433545265
GLOBALSTAR M096         
1 39075U 13005D   24319.52201823 -.00000058  00000+0  25469-3 0  9997
2 39075  52.0049 164.0561 0001272  98.4257 261.6754 12.62264810544181
GLOBALSTAR M078         
1 39076U 13005E   24319.17842074 -.00000003  00000+0  56484-3 0  9999
2 39076  51.9871 249.9007 0001658  66.4537 293.6504 12.62267892542768
GLOBALSTAR M087         
1 52888U 22064A   24319.53846889 -.00000107  00000+0  38900-4 0  9997
2 52888  51.9782  44.2138 0034889 336.9069  23.0259 13.30669456117648
